start=new Date('2023-05-31T00:00:00.000Z').valueOf();
sats=[{"CLASSIFICATION_TYPE":"U","SITE":"AFWTR","BSTAR":"0.00000941860000","MEAN_ELEMENT_THEORY":"SGP4","ECCENTRICITY":"0.00031220","RCS_SIZE":"LARGE","LAUNCH_DATE":"2022-07-11","GP_ID":"232820934","TLE_LINE2":"2 53060  97.6552 331.8380 0003122  53.5662 306.5850 15.01260932 48751","RA_OF_ASC_NODE":"331.8380","DECAY_DATE":null,"PERIOD":"95.919","SEMIMAJOR_AXIS":"6941.144","MEAN_ANOMALY":"306.5850","REF_FRAME":"TEME","PERIAPSIS":"560.842","ELEMENT_SET_NO":"999","CENTER_NAME":"EARTH","MEAN_MOTION_DOT":"0.00000062","COUNTRY_CODE":"US","FILE":"3920920","OBJECT_ID":"2022-077T","MEAN_MOTION_DDOT":"0.0000000000000","NORAD_CAT_ID":"53060","EPOCH":"2023-05-30T12:06:51.894720","TLE_LINE1":"1 53060U 22077T   23150.50476730  .00000062  00000-0  94186-5 0  9996","OBJECT_NAME":"STARLINK-4305","REV_AT_EPOCH":"4875","EPHEMERIS_TYPE":"0","ARG_OF_PERICENTER":"53.5662","APOAPSIS":"565.176","OBJECT_TYPE":"PAYLOAD","MEAN_MOTION":"15.01260932","INCLINATION":"97.6552","TIME_SYSTEM":"UTC"},{"FILE":"3920920","COUNTRY_CODE":"US","MEAN_MOTION_DDOT":"0.0000000000000","OBJECT_ID":"2022-077U","CENTER_NAME":"EARTH","MEAN_MOTION_DOT":"-0.00000060","EPOCH":"2023-05-30T11:56:11.822784","TLE_LINE1":"1 53061U 22077U   23150.49735906 -.00000060  00000-0 -10936-6 0  9990","OBJECT_NAME":"STARLINK-4308","NORAD_CAT_ID":"53061","APOAPSIS":"564.393","EPHEMERIS_TYPE":"0","REV_AT_EPOCH":"4875","ARG_OF_PERICENTER":"50.7461","TIME_SYSTEM":"UTC","OBJECT_TYPE":"PAYLOAD","MEAN_MOTION":"15.01260001","INCLINATION":"97.6545","MEAN_ELEMENT_THEORY":"SGP4","SITE":"AFWTR","CLASSIFICATION_TYPE":"U","BSTAR":"-0.00000010936000","LAUNCH_DATE":"2022-07-11","RCS_SIZE":"LARGE","ECCENTRICITY":"0.00019900","PERIOD":"95.919","DECAY_DATE":null,"GP_ID":"232821184","RA_OF_ASC_NODE":"331.8270","TLE_LINE2":"2 53061  97.6545 331.8270 0001990  50.7461 309.3940 15.01260001 48757","ELEMENT_SET_NO":"999","MEAN_ANOMALY":"309.3940","SEMIMAJOR_AXIS":"6941.147","PERIAPSIS":"561.631","REF_FRAME":"TEME"},{"INCLINATION":"97.6551","OBJECT_TYPE":"PAYLOAD","MEAN_MOTION":"15.01261118","TIME_SYSTEM":"UTC","ARG_OF_PERICENTER":"45.2755","REV_AT_EPOCH":"4875","EPHEMERIS_TYPE":"0","APOAPSIS":"564.816","NORAD_CAT_ID":"53062","TLE_LINE1":"1 53062U 22077V   23150.50106333  .00000091  00000-0  11661-4 0  9995","OBJECT_NAME":"STARLINK-4311","EPOCH":"2023-05-30T12:01:31.871712","MEAN_MOTION_DOT":"0.00000091","CENTER_NAME":"EARTH","OBJECT_ID":"2022-077V","MEAN_MOTION_DDOT":"0.0000000000000","COUNTRY_CODE":"US","FILE":"3920920","PERIAPSIS":"561.201","REF_FRAME":"TEME","SEMIMAJOR_AXIS":"6941.143","MEAN_ANOMALY":"314.8681","ELEMENT_SET_NO":"999","TLE_LINE2":"2 53062  97.6551 331.8328 0002604  45.2755 314.8681 15.01261118 48750","RA_OF_ASC_NODE":"331.8328","GP_ID":"232821436","PERIOD":"95.919","DECAY_DATE":null,"ECCENTRICITY":"0.00026040","RCS_SIZE":"LARGE","LAUNCH_DATE":"2022-07-11","BSTAR":"0.00001166100000","CLASSIFICATION_TYPE":"U","SITE":"AFWTR","MEAN_ELEMENT_THEORY":"SGP4"},{"TIME_SYSTEM":"UTC","INCLINATION":"97.6587","MEAN_MOTION":"15.02068787","OBJECT_TYPE":"PAYLOAD","APOAPSIS":"561.770","ARG_OF_PERICENTER":"93.6388","REV_AT_EPOCH":"4880","EPHEMERIS_TYPE":"0","OBJECT_NAME":"STARLINK-4307","TLE_LINE1":"1 53063U 22077W   23150.78818358  .00001646  00000-0  12995-3 0  9990","EPOCH":"2023-05-30T18:54:59.061312","NORAD_CAT_ID":"53063","MEAN_MOTION_DDOT":"0.0000000000000","OBJECT_ID":"2022-077W","FILE":"3921192","COUNTRY_CODE":"US","MEAN_MOTION_DOT":"0.00001646","CENTER_NAME":"EARTH","ELEMENT_SET_NO":"999","REF_FRAME":"TEME","PERIAPSIS":"559.270","MEAN_ANOMALY":"266.5042","SEMIMAJOR_AXIS":"6938.655","PERIOD":"95.868","DECAY_DATE":null,"RA_OF_ASC_NODE":"332.1237","TLE_LINE2":"2 53063  97.6587 332.1237 0001801  93.6388 266.5042 15.02068787 48808","GP_ID":"232855364","LAUNCH_DATE":"2022-07-11","RCS_SIZE":"LARGE","ECCENTRICITY":"0.00018010","MEAN_ELEMENT_THEORY":"SGP4","BSTAR":"0.00012995000000","SITE":"AFWTR","CLASSIFICATION_TYPE":"U"},{"MEAN_ANOMALY":"318.0592","SEMIMAJOR_AXIS":"6941.146","REF_FRAME":"TEME","PERIAPSIS":"561.432","ELEMENT_SET_NO":"999","GP_ID":"232820435","RA_OF_ASC_NODE":"331.8301","TLE_LINE2":"2 53064  97.6550 331.8301 0002274  42.0806 318.0592 15.01260340 48750","DECAY_DATE":null,"PERIOD":"95.919","ECCENTRICITY":"0.00022740","LAUNCH_DATE":"2022-07-11","RCS_SIZE":"LARGE","SITE":"AFWTR","CLASSIFICATION_TYPE":"U","BSTAR":"0.00000782950000","MEAN_ELEMENT_THEORY":"SGP4","MEAN_MOTION":"15.01260340","OBJECT_TYPE":"PAYLOAD","INCLINATION":"97.6550","TIME_SYSTEM":"UTC","REV_AT_EPOCH":"4875","EPHEMERIS_TYPE":"0","ARG_OF_PERICENTER":"42.0806","APOAPSIS":"564.589","NORAD_CAT_ID":"53064","EPOCH":"2023-05-30T11:58:51.758688","TLE_LINE1":"1 53064U 22077X   23150.49921017  .00000042  00000-0  78295-5 0  9992","OBJECT_NAME":"STARLINK-4313","CENTER_NAME":"EARTH","MEAN_MOTION_DOT":"0.00000042","FILE":"3920920","COUNTRY_CODE":"US","MEAN_MOTION_DDOT":"0.0000000000000","OBJECT_ID":"2022-077X"},{"LAUNCH_DATE":"2022-07-11","RCS_SIZE":"LARGE","ECCENTRICITY":"0.00010190","MEAN_ELEMENT_THEORY":"SGP4","SITE":"AFWTR","CLASSIFICATION_TYPE":"U","BSTAR":"-0.00002565400000","ELEMENT_SET_NO":"999","MEAN_ANOMALY":"294.4219","SEMIMAJOR_AXIS":"6941.154","PERIAPSIS":"562.311","REF_FRAME":"TEME","PERIOD":"95.920","DECAY_DATE":null,"GP_ID":"232820685","RA_OF_ASC_NODE":"331.8206","TLE_LINE2":"2 53065  97.6536 331.8206 0001019  65.7112 294.4219 15.01257760 48752","EPOCH":"2023-05-30T11:50:51.886176","OBJECT_NAME":"STARLINK-4312","TLE_LINE1":"1 53065U 22077Y   23150.49365609 -.00000388  00000-0 -25654-4 0  9997","NORAD_CAT_ID":"53065","FILE":"3920920","COUNTRY_CODE":"US","MEAN_MOTION_DDOT":"0.0000000000000","OBJECT_ID":"2022-077Y","CENTER_NAME":"EARTH","MEAN_MOTION_DOT":"-0.00000388","TIME_SYSTEM":"UTC","OBJECT_TYPE":"PAYLOAD","MEAN_MOTION":"15.01257760","INCLINATION":"97.6536","APOAPSIS":"563.726","REV_AT_EPOCH":"4875","EPHEMERIS_TYPE":"0","ARG_OF_PERICENTER":"65.7112"},{"NORAD_CAT_ID":"53066","TLE_LINE1":"1 53066U 22077Z   23150.49249924 -.00000182  00000-0 -93362-5 0  9993","OBJECT_NAME":"STARLINK-4309","EPOCH":"2023-05-30T11:49:11.934336","MEAN_MOTION_DOT":"-0.00000182","CENTER_NAME":"EARTH","OBJECT_ID":"2022-077Z","MEAN_MOTION_DDOT":"0.0000000000000","COUNTRY_CODE":"US","FILE":"3920920","INCLINATION":"97.6540","MEAN_MOTION":"15.02070001","OBJECT_TYPE":"PAYLOAD","TIME_SYSTEM":"UTC","ARG_OF_PERICENTER":"83.3539","EPHEMERIS_TYPE":"0","REV_AT_EPOCH":"4875","APOAPSIS":"561.519","ECCENTRICITY":"0.00014450","RCS_SIZE":"LARGE","LAUNCH_DATE":"2022-07-11","BSTAR":"-0.00000933620000","CLASSIFICATION_TYPE":"U","SITE":"AFWTR","MEAN_ELEMENT_THEORY":"SGP4","PERIAPSIS":"559.514","REF_FRAME":"TEME","SEMIMAJOR_AXIS":"6938.651","MEAN_ANOMALY":"276.7850","ELEMENT_SET_NO":"999","TLE_LINE2":"2 53066  97.6540 331.8279 0001445  83.3539 276.7850 15.02070001 48756","RA_OF_ASC_NODE":"331.8279","GP_ID":"232821936","DECAY_DATE":null,"PERIOD":"95.868"},{"MEAN_MOTION_DDOT":"0.0000000000000","OBJECT_ID":"2022-077AA","FILE":"3920992","COUNTRY_CODE":"US","MEAN_MOTION_DOT":"-0.00000632","CENTER_NAME":"EARTH","TLE_LINE1":"1 53067U 22077AA  23150.48995552 -.00000632  00000-0 -44624-4 0  9994","OBJECT_NAME":"STARLINK-4306","EPOCH":"2023-05-30T11:45:32.156928","NORAD_CAT_ID":"53067","APOAPSIS":"563.694","ARG_OF_PERICENTER":"123.7794","REV_AT_EPOCH":"4933","EPHEMERIS_TYPE":"0","TIME_SYSTEM":"UTC","INCLINATION":"97.6536","MEAN_MOTION":"15.01255185","OBJECT_TYPE":"PAYLOAD","MEAN_ELEMENT_THEORY":"SGP4","BSTAR":"-0.00004462400000","SITE":"AFWTR","CLASSIFICATION_TYPE":"U","LAUNCH_DATE":"2022-07-11","RCS_SIZE":"LARGE","ECCENTRICITY":"0.00009610","DECAY_DATE":null,"PERIOD":"95.920","RA_OF_ASC_NODE":"331.8140","TLE_LINE2":"2 53067  97.6536 331.8140 0000961 123.7794 236.3522 15.01255185 49333","GP_ID":"232826380","ELEMENT_SET_NO":"999","REF_FRAME":"TEME","PERIAPSIS":"562.360","MEAN_ANOMALY":"236.3522","SEMIMAJOR_AXIS":"6941.162"},{"PERIAPSIS":"561.636","REF_FRAME":"TEME","SEMIMAJOR_AXIS":"6941.159","MEAN_ANOMALY":"269.2950","ELEMENT_SET_NO":"999","TLE_LINE2":"2 53068  97.6536 331.8130 0002000  90.8503 269.2950 15.01255976 48754","RA_OF_ASC_NODE":"331.8130","GP_ID":"232820935","DECAY_DATE":null,"PERIOD":"95.920","ECCENTRICITY":"0.00020000","RCS_SIZE":"LARGE","LAUNCH_DATE":"2022-07-11","BSTAR":"-0.00003111500000","CLASSIFICATION_TYPE":"U","SITE":"AFWTR","MEAN_ELEMENT_THEORY":"SGP4","INCLINATION":"97.6536","MEAN_MOTION":"15.01255976","OBJECT_TYPE":"PAYLOAD","TIME_SYSTEM":"UTC","ARG_OF_PERICENTER":"90.8503","REV_AT_EPOCH":"4875","EPHEMERIS_TYPE":"0","APOAPSIS":"564.412","NORAD_CAT_ID":"53068","OBJECT_NAME":"STARLINK-4325","TLE_LINE1":"1 53068U 22077AB  23150.49551283 -.00000459  00000-0 -31115-4 0  9993","EPOCH":"2023-05-30T11:53:32.308512","MEAN_MOTION_DOT":"-0.00000459","CENTER_NAME":"EARTH","OBJECT_ID":"2022-077AB","MEAN_MOTION_DDOT":"0.0000000000000","COUNTRY_CODE":"US","FILE":"3920920"},{"INCLINATION":"97.6538","MEAN_MOTION":"15.01256133","OBJECT_TYPE":"PAYLOAD","TIME_SYSTEM":"UTC","ARG_OF_PERICENTER":"137.8972","REV_AT_EPOCH":"4875","EPHEMERIS_TYPE":"0","APOAPSIS":"563.765","NORAD_CAT_ID":"53069","TLE_LINE1":"1 53069U 22077AC  23150.48625074 -.00000902  00000-0 -65641-4 0  9997","OBJECT_NAME":"STARLINK-4323","EPOCH":"2023-05-30T11:40:12.063936","MEAN_MOTION_DOT":"-0.00000902","CENTER_NAME":"EARTH","MEAN_MOTION_DDOT":"0.0000000000000","OBJECT_ID":"2022-077AC","FILE":"3920920","COUNTRY_CODE":"US","PERIAPSIS":"562.282","REF_FRAME":"TEME","MEAN_ANOMALY":"222.2335","SEMIMAJOR_AXIS":"6941.159","ELEMENT_SET_NO":"999","RA_OF_ASC_NODE":"331.8081","TLE_LINE2":"2 53069  97.6538 331.8081 0001068 137.8972 222.2335 15.01256133 48759","GP_ID":"232821185","DECAY_DATE":null,"PERIOD":"95.920","ECCENTRICITY":"0.00010680","LAUNCH_DATE":"2022-07-11","RCS_SIZE":"LARGE","BSTAR":"-0.00006564100000","SITE":"AFWTR","CLASSIFICATION_TYPE":"U","MEAN_ELEMENT_THEORY":"SGP4"}];
